#dP2025  2  3  0  0  0.00000000      96 __u+U IGS20 FIT  IAC
## 2352  86400.00000000   900.00000000 60709 0.0000000000000
+  129   C01C02C03C04C05C06C07C08C09C10C11C12C13C14C16C19C20
+        C21C22C23C24C25C26C27C28C29C30C32C33C34C35C36C37C38
+        C39C40C41C42C43C44C45C59C60C62E02E03E04E05E06E07E08
+        E09E10E11E13E14E15E18E19E21E24E25E26E27E29E30E31E33
+        E34E36G01G02G03G04G05G06G07G08G09G10G11G12G13G14G15
+        G16G17G18G19G20G21G22G23G24G25G26G27G28G29G30G31G32
+        J02J03J04J07R01R02R03R04R05R07R08R09R10R11R12R13R14
+        R15R16R17R18R20R21R22R23R24R26  0  0  0  0  0  0  0
++        20 16 16 16 16  9  9  9  9  9  8  8  9  9  9  7  7
++         7  7  7  7  7  7  7  7  7  7  7  7  7  7  7  7  8
++         8  8  7  7  7  7  7 17 17 17  4  4  4  4  4  4  4
++         4  4  4  4  4  4  4  4  4  4  4  4  4  4  4  4  4
++         4  4  4  4  3  4  4  3  4  4  4  4  3  3  4  4  4
++         4  3  4  4  4  4  4  4  4  3  4  4  3  4  4  3  4
++        10 10 10 16  7  6  6  6  6  6  6  6 14  6  6 14  6
++         6  6  6  6  7  6  6 14  6 11  0  0  0  0  0  0  0
%c M  cc GPS ccc cccc cccc cccc cccc ccccc ccccc ccccc ccccc
%c cc cc ccc ccc cccc cccc cccc cccc ccccc ccccc ccccc ccccc
%f  0.0000000  0.000000000  0.00000000000  0.000000000000000
%f  0.0000000  0.000000000  0.00000000000  0.000000000000000
%i    0    0    0    0      0      0      0      0         0
%i    0    0    0    0      0      0      0      0         0
/* INFORMATION & ANALYSIS CENTER (IAC)            RAPID DATA
/* S/V CLOCKS ARE ALIGNED TO GNSS TIME                      
/* G:C1WC2W R:C1PC2P E:C1XC5X C:C2IC6I J:C1CC2S             
/* PCV:IGS20_2350 OL/AL:FES2004  NONE     YN ORB:CoN CLK:CoN
*  2025 02 03  6 30  0.00000000
PC01 -34301.878604  24482.743741  -1312.777303   -348.353134
PC02   4494.790055  41856.850794  -1935.646643    629.917733
PC03 -14670.606056  39491.995579  -1431.578874    770.042975
PC04 -39636.666849  14391.662766  -1135.189796   -355.759548
PC05  21914.054218  35945.377519  -1067.874752   -279.557626
PC06 -14698.215825  38943.603964   5718.148975    745.020524
PC07  -3974.315400  31713.213378  27712.996412    227.223257
PC08 -13145.083349  20225.097454 -34628.941543     84.442586
PC09  -9078.467873  38215.216867  14894.856049   -848.196377
PC10   3531.905027  34841.721984  24219.424840   -429.151874
PC11  13181.043646  14393.272117 -19872.179894    366.943628
PC12   3562.164184  27183.577912  -5135.900267   -202.581509
PC13  -8017.454898  21950.352684 -34948.785557     57.370772
PC14  24370.423207  13646.800700   -653.496554   -732.101496
PC16 -15823.019147  38661.842782   4191.601538   -112.556231
PC19 -25519.281614  -7436.513640  -8424.489378   -961.923781
PC20 -20362.358126 -17241.784935   8129.088009   -865.317778
PC21   2175.250013  17597.129350 -21540.430359   -903.601967
PC22 -16397.283944   7341.972474 -21347.492037    247.507805
PC23  23221.097670 -15427.290831  -1171.301014   -940.573207
PC24   9486.281178  13345.232967  22572.838475    668.127788
PC25  23309.206088  -2183.503396  15155.906207    635.160387
PC26  -8929.934694  20364.461946  16857.033602   -414.766337
PC27   2166.142623 -27532.213445  -4064.262107    432.155548
PC28  11626.187485 -18699.077058 -17140.499051    338.793929
PC29 -16151.657468  -4512.803616  22301.596981    397.621561
PC30  -9991.463810 -23181.990069  11916.013602     96.132859
PC32  -2137.682675 -17546.574648  21606.052939   -906.845006
PC33  25612.973476   7309.668169   8364.314345   -950.326556
PC34  10892.765828  21993.551402 -13271.824197    621.168734
PC35 -11411.057837  18320.423212  17652.624862    135.899495
PC36 -23491.109016   1919.749860 -14941.276317    260.323647
PC37   9802.952766 -20189.868618 -16567.968121   -910.738884
PC38 -22944.534354  21241.614412 -28268.102657    206.536922
PC39 -18020.049515  37790.299292  -3552.596951    -10.849166
PC40  -6938.860206  27486.264779  31312.510685   -118.676133
PC41  17270.970334  -6686.909665  20938.015982   -882.724949
PC42  19133.688048  17782.738374  -9826.011673   -586.301497
PC43  16225.835765   5234.848177 -22099.709390    100.283250
PC44  -1141.785815  27553.903854   4138.474893    729.655518
PC45 -23558.068154  14974.067208    572.966908   -225.072783
PC59 -32291.796853  27036.058495  -2050.011411     -0.052613
PC60   7287.811165  41471.680122  -1947.813139      0.607926
PC62 -39620.302307  14406.109392   1105.857157      0.114867
PE02  20468.880444  13220.509868  16779.177980    194.846222
PE03  16753.175171  23462.478269   6731.725266   -170.673966
PE04 -19499.219023  -5853.412638 -21477.954523   -148.468695
PE05   4213.059174  26883.735060 -11646.074253   4824.469687
PE06 -16460.780106   4987.679928 -24100.947261    -77.986803
PE07  11056.811731 -14352.565992  23411.222247   -167.021254
PE08  19503.313325   6657.382377  21252.021972   -410.950242
PE09 -10968.051659  14250.549376 -23511.644809   -762.069732
PE10 -21194.313983  14428.566578  14792.190928   -687.483369
PE11 -19014.902602  22071.821211   5178.340387   -721.552760
PE13  19200.768700 -21797.367274  -5720.167537    -29.941838
PE14 -13764.266941 -18606.820480   3864.888487    674.065925
PE15  19891.120585  -4915.638455 -21355.295338   -154.847588
PE18  20794.303410  23283.860583  -9072.997720   1070.168671
PE19 -15825.292727 -24465.476900  -5209.072113   1326.584366
PE21    121.028520 -16914.305148 -24300.598348   -644.058700
PE24 -21271.561763  10705.292093  17571.706050  -1248.258944
PE25   -687.248679  16875.568937  24303.947967     13.900112
PE26   6870.125057 -25576.176179  13242.085483   -135.666115
PE27  21226.829017 -10736.834575 -17615.554566   -573.001441
PE29  -4359.549138 -27017.935831  11292.223588    -67.465221
PE30  29536.454039   1629.042276   -826.011240  -1203.538676
PE31 -29548.795528  -1701.691376    615.849397    -53.102288
PE33  -8572.596063 -14926.230648  24091.795824     16.423026
PE34   8896.862470  14576.014353 -24173.782004   -161.418628
PE36  -7345.441116  25601.152630 -12889.328574   -347.999396
PG01 -15768.958079  21254.228774   2191.842297     95.930222
PG02 -14295.217775  21292.027810   6484.291282   -252.266257
PG03 -15472.900176  12097.972417 -17986.438645    657.461002
PG04  -5264.735256  17589.403990 -19113.747586    521.626922
PG05  25238.687938  -5781.606750   5903.695202   -200.880198
PG06  11562.901887   9004.803541 -22074.386302   -162.447862
PG07  -3722.120460  23721.527984  11386.940982    -13.488675
PG08 -13390.280119   7654.321982  21494.446367    473.336258
PG09   3699.509836  22782.353869 -13174.689922    553.167973
PG10 -18230.017863 -10617.101670  16575.031926   -303.246384
PG11  17569.199439  -2700.552010 -19675.299555   -749.254256
PG12  18114.003238 -10692.618156 -16485.025111   -568.104230
PG13  16321.758292   2543.699013  20619.952231    695.387193
PG14  14712.613642  13034.002368  18021.378447    591.781679
PG15  11821.428632  -9957.929580  21080.085008    259.101341
PG16 -26756.868051  -1190.608022    763.050997    -62.191709
PG17  12704.201018  23170.250077   -591.636889    444.057332
PG18   2936.067837 -22878.880023  12995.357275   -655.083852
PG19  16789.019877  17889.262550 -10853.969023    593.692045
PG20  25589.724461   -399.424315  -6770.404134    366.581281
PG21 -16503.053735  15986.167224  12625.082712    101.882865
PG22  20547.959421  10631.901316  13142.050445    -95.369913
PG23  -3257.389919 -14558.008620  22034.292937    416.328466
PG24  14504.646846 -20616.413991   7225.572688   -456.660777
PG25   4633.390539 -15535.335210 -21364.847967    495.672769
PG26 -24466.021029  -4748.729211  -9910.514449    -74.884560
PG27 -18318.082928  -4921.352318  18453.428579    -32.115903
PG28 -11190.863069 -10993.368420 -21445.789812   -550.918475
PG29  -1593.428578 -23020.516217 -13089.111210   -541.262553
PG30   6078.469872  17812.528183  18795.204215   -224.781608
PG31 -16177.440092  -2107.816718 -21265.619849   -216.402054
PG32 -16727.152235 -20033.667032  -5251.402741   -529.302801
PJ02 -30063.600030  21462.844597  25497.136263     -1.014422
PJ03 -32005.959639  26329.484977  13129.969777     -0.402115
PJ04 -22939.173162  21744.160286 -22933.653170     -0.037879
PJ07 -25350.520884  33686.392522    -51.243862     -0.096722
PR01  20138.843720  15642.374935   -861.115906    113.440618
PR02  19234.340109   6484.966540  15452.765670    -37.813396
PR03   7770.952421  -7597.842378  23126.851539    116.139228
PR04  -7344.976346 -16660.346452  17906.771354    275.488348
PR05 -18593.615649 -17196.856693   3159.900763    144.779240
PR07  -7606.081553   7682.827025 -23058.865882    100.079768
PR08   7726.242472  16702.762526 -17578.954998     -6.242306
PR09 -23429.852028   5774.276934  -8124.041795    235.788659
PR10 -21129.178458  12414.434055   7212.656104   -280.015469
PR11  -7071.165651  13378.854195  20534.125716     -5.894461
PR12  13147.083443   5685.461892  21119.824041     50.350715
PR13  22901.990999  -3967.668991  10480.543156    -55.985745
PR14  20091.223002 -12926.374266  -8962.991013     27.695152
PR15   5241.951683 -13095.358906 -21243.325863     71.564860
PR16 -12967.070376  -5604.768616 -21228.457368     33.011946
PR17   9137.045870 -20020.374979 -12856.455271    162.981959
PR18   2872.813208 -25184.057584   3127.175300    185.142427
PR20 -10897.025211   1827.738400  22998.344542   -125.331153
PR21  -9652.400388  19017.288895  14013.592829   -173.558929
PR22  -2711.495971  24979.395867  -4325.178623    -58.958829
PR23   5163.721519  17291.588326 -18026.938578   -145.867864
PR24  11305.837358  -2873.307253 -22663.396230    -90.865498
PR26   6056.021778  16017.923300 -18889.094487   -131.151217
EOF
